     2.100          NAVIGATION                              RINEX VERSION / TYPE
fic2rin                                 09/22/2015 00:17:33 PGM / RUN BY / DATE
                                                            END OF HEADER
17 15  9 21  2  0  0.0 -.188378617167D-03 -.125055521494D-11  .000000000000D+00
     .470000000000D+02 -.514687500000D+02  .391159150492D-08  .253542862975D+01
    -.268220901489D-05  .103984752204D-01  .822730362415D-05  .515357617950D+04
     .936000000000D+05  .968575477600D-07  .121836567590D+01 -.122934579849D-06
     .973446840814D+00  .225343750000D+03 -.200885404081D+01 -.766996234186D-08
     .138220043134D-09  .100000000000D+01  .186300000000D+04  .000000000000D+00
     .240000000000D+01  .000000000000D+00 -.107102096081D-07  .470000000000D+02
     .864060000000D+05  .400000000000D+01
18 15  9 21  2  0  0.0  .435823109001D-03  .329691829393D-11  .000000000000D+00
     .300000000000D+02 -.312500000000D+01  .550987236544D-08 -.219684004243D+01
    -.195577740669D-06  .163534849416D-01  .688619911671D-05  .515362874794D+04
     .936000000000D+05  .219792127609D-06 -.303922614888D+01  .279396772385D-07
     .925404410671D+00  .221468750000D+03 -.193629890413D+01 -.824962934446D-08
     .103218585183D-09  .100000000000D+01  .186300000000D+04  .000000000000D+00
     .240000000000D+01  .000000000000D+00 -.111758708954D-07  .300000000000D+02
     .864060000000D+05  .400000000000D+01
19 15  9 21  2  0  0.0 -.520395115018D-03 -.568434188608D-12  .000000000000D+00
     .780000000000D+02 -.560000000000D+02  .416374486526D-08  .119703042158D+01
    -.277720391750D-05  .113518319558D-01  .845640897751D-05  .515514107132D+04
     .936000000000D+05 -.143423676491D-06  .126764925452D+01  .521540641785D-07
     .970498724413D+00  .225406250000D+03  .650653638930D+00 -.797211778499D-08
    -.339299847486D-10  .100000000000D+01  .186300000000D+04  .000000000000D+00
     .240000000000D+01  .000000000000D+00 -.149011611938D-07  .780000000000D+02
     .864060000000D+05  .400000000000D+01
20 15  9 21  2  0  0.0  .356937292963D-03  .306954461848D-11  .000000000000D+00
     .710000000000D+02 -.124062500000D+02  .558237538548D-08  .188537867713D+01
    -.661239027977D-06  .490430183709D-02  .725127756596D-05  .515364181137D+04
     .936000000000D+05 -.502914190292D-07 -.309137312193D+01 -.121071934700D-06
     .926622269491D+00  .222750000000D+03  .122510232003D+01 -.847463871700D-08
    -.107147320259D-10  .100000000000D+01  .186300000000D+04  .000000000000D+00
     .240000000000D+01  .000000000000D+00 -.838190317154D-08  .710000000000D+02
     .864060000000D+05  .400000000000D+01
21 15  9 21  2  0  0.0 -.481206923723D-03 -.272848410532D-11  .000000000000D+00
     .980000000000D+02 -.259375000000D+01  .520593113364D-08 -.122493007898D+01
     .368803739548D-06  .225705374032D-01  .804662704468D-05  .515375264740D+04
     .936000000000D+05  .156462192535D-06  .220131805515D+01  .614672899246D-06
     .934601628881D+00  .209250000000D+03 -.187749713430D+01 -.847249577060D-08
     .361086469272D-09  .100000000000D+01  .186300000000D+04  .000000000000D+00
     .340000000000D+01  .000000000000D+00 -.116415321827D-07  .980000000000D+02
     .864060000000D+05  .400000000000D+01
22 15  9 21  2  0  0.0  .393302179873D-03  .375166564481D-11  .000000000000D+00
     .340000000000D+02 -.325000000000D+01  .562416284039D-08 -.268044025270D+01
    -.353902578354D-06  .800457329024D-02  .716373324394D-05  .515367716217D+04
     .936000000000D+05  .143423676491D-06 -.303827051228D+01 -.409781932831D-07
     .923230297893D+00  .219843750000D+03 -.204068459713D+01 -.842106505688D-08
     .207151485834D-10  .100000000000D+01  .186300000000D+04  .000000000000D+00
     .240000000000D+01  .000000000000D+00 -.176951289177D-07  .340000000000D+02
     .864060000000D+05  .400000000000D+01
23 15  9 21  2  0  0.0 -.134394969791D-03 -.216004991671D-11  .000000000000D+00
     .530000000000D+02  .274062500000D+02  .497592155282D-08  .138027069061D+01
     .164471566677D-05  .103941307170D-01  .965036451817D-05  .515380142975D+04
     .936000000000D+05 -.912696123123D-07 -.196558990781D+01  .130385160446D-06
     .947433521186D+00  .188843750000D+03 -.262772737905D+01 -.830677458193D-08
    -.330370904131D-09  .100000000000D+01  .186300000000D+04  .000000000000D+00
     .240000000000D+01  .000000000000D+00 -.200234353542D-07  .530000000000D+02
     .864060000000D+05  .400000000000D+01
24 15  9 21  2  0  0.0 -.501750037074D-05 -.568434188608D-12  .000000000000D+00
     .830000000000D+02  .604687500000D+02  .487484591404D-08  .684098696508D+00
     .321678817272D-05  .343189656269D-02  .574253499508D-05  .515365936661D+04
     .936000000000D+05  .502914190292D-07 -.938554926534D+00  .484287738800D-07
     .952125532490D+00  .260406250000D+03  .303934969231D+00 -.837856328651D-08
    -.108933108930D-09  .100000000000D+01  .186300000000D+04  .000000000000D+00
     .340000000000D+01  .000000000000D+00  .232830643654D-08  .830000000000D+02
     .864060000000D+05  .400000000000D+01
25 15  9 21  2  0  0.0 -.415514223278D-04 -.522959453519D-11  .000000000000D+00
     .102000000000D+03 -.281562500000D+02  .416195907659D-08 -.140125434135D+01
    -.146590173244D-05  .463508977555D-02  .506825745106D-05  .515362687492D+04
     .936000000000D+05  .763684511185D-07  .126955372224D+00 -.316649675369D-07
     .978737311423D+00  .293687500000D+03  .747452878687D+00 -.807247910830D-08
    -.180364655769D-09  .100000000000D+01  .186300000000D+04  .000000000000D+00
     .340000000000D+01  .000000000000D+00  .512227416039D-08  .102000000000D+03
     .864060000000D+05  .400000000000D+01
26 15  9 21  2  0  0.0 -.589834526181D-04 -.113686837722D-10  .000000000000D+00
     .850000000000D+02 -.221250000000D+02  .460269172058D-08 -.256522387788D+01
    -.104866921902D-05  .165665056556D-03  .429712235928D-05  .515363632584D+04
     .936000000000D+05 -.391155481339D-07  .122342904164D+00  .894069671631D-07
     .960807418788D+00  .297718750000D+03  .608122609285D+00 -.831963226036D-08
    -.115361948145D-09  .100000000000D+01  .186300000000D+04  .000000000000D+00
     .240000000000D+01  .000000000000D+00  .745058059692D-08  .850000000000D+02
     .864060000000D+05  .400000000000D+01
27 15  9 21  2  0  0.0  .213151797652D-04  .295585778076D-11  .000000000000D+00
     .730000000000D+02 -.715000000000D+02  .413195782691D-08  .248711299088D+01
    -.365637242794D-05  .264491373673D-02  .819191336632D-05  .515370722580D+04
     .936000000000D+05  .372529029846D-08  .116989276895D+01  .000000000000D+00
     .968382537340D+00  .225375000000D+03  .323207065797D+00 -.795854579109D-08
     .539308178636D-10  .100000000000D+01  .186300000000D+04  .000000000000D+00
     .240000000000D+01  .000000000000D+00  .139698386192D-08  .730000000000D+02
     .864060000000D+05  .400000000000D+01
28 15  9 21  2  0  0.0  .469004269689D-03  .272848410532D-11  .000000000000D+00
     .640000000000D+02 -.318750000000D+02  .375444210187D-08 -.292862386597D+01
    -.160001218319D-05  .196893722750D-01  .499375164509D-05  .515370122528D+04
     .936000000000D+05  .266358256340D-06  .198836956552D+00 -.745058059692D-08
     .989486821766D+00  .296187500000D+03 -.165808669559D+01 -.754781439677D-08
    -.757174396496D-10  .100000000000D+01  .186300000000D+04  .000000000000D+00
     .240000000000D+01  .000000000000D+00 -.111758708954D-07  .640000000000D+02
     .864060000000D+05  .400000000000D+01
30 15  9 21  2  0  0.0  .280425883830D-04  .659383658785D-11  .000000000000D+00
     .710000000000D+02  .546250000000D+02  .467198032102D-08 -.321584720369D+00
     .271573662758D-05  .170584744774D-02  .600889325142D-05  .515369714928D+04
     .936000000000D+05 -.558793544769D-08 -.847993546061D+00 -.745058059692D-08
     .954787294380D+00  .260312500000D+03  .312127108300D+01 -.824748639806D-08
    -.782175437889D-10  .100000000000D+01  .186300000000D+04  .000000000000D+00
     .240000000000D+01  .000000000000D+00  .325962901115D-08  .710000000000D+02
     .864060000000D+05  .400000000000D+01
31 15  9 21  2  0  0.0  .302121043205D-03 -.136424205266D-11  .000000000000D+00
     .103000000000D+03  .689687500000D+02  .434268089009D-08 -.281300617323D+00
     .353716313839D-05  .812291481998D-02  .657513737679D-05  .515359587860D+04
     .936000000000D+05  .633299350739D-07 -.887426846673D+00 -.145286321640D-06
     .973864603404D+00  .261812500000D+03 -.520440939163D+00 -.818498379457D-08
    -.107147320259D-10  .100000000000D+01  .186300000000D+04  .000000000000D+00
     .340000000000D+01  .000000000000D+00 -.135041773319D-07  .103000000000D+03
     .864060000000D+05  .400000000000D+01
32 15  9 21  2  0  0.0 -.373851507902D-04  .111413100967D-10  .000000000000D+00
     .870000000000D+02 -.165625000000D+01  .526129058244D-08  .174569651595D+00
     .298023223877D-07  .113358243834D-01  .729784369469D-05  .515367807388D+04
     .936000000000D+05  .188127160072D-06 -.293463973182D+01  .149011611938D-07
     .947241837956D+00  .234875000000D+03  .126049634290D+00 -.845892377670D-08
    -.207151485834D-10  .100000000000D+01  .186300000000D+04  .000000000000D+00
     .240000000000D+01  .000000000000D+00 -.372529029846D-08  .870000000000D+02
     .864060000000D+05  .400000000000D+01
14 15  9 21  1 59 44.0  .333278439939D-04 -.261479726760D-11  .000000000000D+00
     .200000000000D+01  .458437500000D+02  .436268172321D-08  .250466811023D+01
     .226683914661D-05  .847349769901D-02  .939704477787D-05  .515365971756D+04
     .935840000000D+05  .298023223877D-07 -.189157234898D+01 -.152736902237D-06
     .965506226810D+00  .197406250000D+03 -.195485041406D+01 -.777853829306D-08
    -.272154193457D-09  .100000000000D+01  .186300000000D+04  .000000000000D+00
     .240000000000D+01  .000000000000D+00 -.931322574615D-08  .200000000000D+01
     .891660000000D+05  .400000000000D+01
